[{"OBJECT_NAME":"ELEVATION-1","OBJECT_ID":"2025-009BW","EPOCH":"2026-03-09T17:34:53.371488","MEAN_MOTION":15.36649756,"ECCENTRICITY":0.00031551,"INCLINATION":97.3895,"RA_OF_ASC_NODE":153.1078,"ARG_OF_PERICENTER":317.9798,"MEAN_ANOMALY":42.1204,"EPHEMERIS_TYPE":0,"CLASSIFICATION_TYPE":"U","NORAD_CAT_ID":62677,"ELEMENT_SET_NO":999,"REV_AT_EPOCH":12152,"BSTAR":0.00076188329,"MEAN_MOTION_DOT":0.00027253,"MEAN_MOTION_DDOT":0},{"OBJECT_NAME":"KUIPER-00200","OBJECT_ID":"2026-030J","EPOCH":"2026-03-09T16:14:07.210176","MEAN_MOTION":15.37115765,"ECCENTRICITY":0.00010486,"INCLINATION":51.8819,"RA_OF_ASC_NODE":218.9881,"ARG_OF_PERICENTER":264.9914,"MEAN_ANOMALY":95.0953,"EPHEMERIS_TYPE":0,"CLASSIFICATION_TYPE":"U","NORAD_CAT_ID":67772,"ELEMENT_SET_NO":999,"REV_AT_EPOCH":509,"BSTAR":0.00070618576,"MEAN_MOTION_DOT":0.00025755,"MEAN_MOTION_DDOT":0}]
